DELTA 2 R/B(1)          
1 20453U 90008B   26061.44271042  .00074557  00000+0  90521-3 0  9997
2 20453  35.6028 222.3764 0086982 191.5547 168.3190 15.54850817925009
COSMOS 2058             
1 20465U 90010A   26062.15950528  .00004852  00000+0  28665-3 0  9996
2 20465  82.4665  53.8612 0009860   4.9455 355.1871 15.11248889941253
SL-14 R/B               
1 20466U 90010B   26062.00967480  .00000471  00000+0  54157-4 0  9995
2 20466  82.4992 273.6651 0018962 325.6443  34.3545 14.83561935927497
SL-14 R/B               
1 20511U 90018B   26061.95357581  .00000627  00000+0  75662-4 0  9999
2 20511  82.5191 229.3863 0017571 112.4856 247.8221 14.82135873921581
HST                     
1 20580U 90037B   26062.15651664  .00008766  00000+0  29119-3 0  9995
2 20580  28.4701  84.5634 0001675  60.3567 299.7195 15.29358901772310
SL-16 R/B               
1 20625U 90046B   26062.12285701 -.00000172  00000+0 -64098-4 0  9998
2 20625  71.0003 311.7062 0016124 308.4467  51.5208 14.15014698847463
COSMOS 2084             
1 20663U 90055A   26062.14682862  .00003428  00000+0  24966-3 0  9995
2 20663  62.7926 357.8915 0018121 188.5743 171.5050 15.05601210935331
SL-6 R/B(2)             
1 20666U 90055D   26061.98752603  .00002348  00000+0  18473-3 0  9996
2 20666  62.7820 276.6432 0023719 345.3800  14.6610 15.03555926937189
SL-8 R/B                
1 20775U 90078B   26061.98983187  .00016397  00000+0  48171-3 0  9992
2 20775  82.8990 257.3366 0363882  36.5052 326.0384 14.88795510808305
SL-8 R/B                
1 21088U 91006B   26061.88148520  .00000046  00000+0  30930-4 0  9994
2 21088  82.9463 175.1067 0023427  56.6915  65.6886 13.77493260763131
OKEAN-3                 
1 21397U 91039A   26062.16232901  .00003723  00000+0  26175-3 0  9992
2 21397  82.5201 343.1655 0014339   1.7263 358.4010 15.04747394864056
COSMOS 2151             
1 21422U 91042A   26062.14631432  .00002148  00000+0  16997-3 0  9996
2 21422  82.4930  89.9898 0014139  83.1105 277.1727 15.00073567862212
